ONEWEB-0410             
1 51622U 22012A   23297.16988063  .00000024  00000+0  28089-4 0  9993
2 51622  87.9196 198.0666 0002452 103.7220 256.4185 13.17650779 87644
ONEWEB-0411             
1 51623U 22012B   23297.17452425  .00000300  00000+0  82188-3 0  9999
2 51623  87.8912 228.2800 0001579  74.3114 285.8187 13.10376498 83921
ONEWEB-0415             
1 51624U 22012C   23296.86585033  .00000152  00000+0  40044-3 0  9997
2 51624  87.8914 228.3687 0001564  75.2736 284.8565 13.10376468 83883
ONEWEB-0416             
1 51625U 22012D   23296.87722267  .00000606  00000+0  16998-2 0  9995
2 51625  87.8910 228.3531 0001945  72.3203 287.8137 13.10368163 82642
ONEWEB-0422             
1 51626U 22012E   23297.17832759  .00000086  00000+0  18830-3 0  9998
2 51626  87.9190 198.0594 0002241  54.2252 305.9087 13.17647557 87745
ONEWEB-0423             
1 51627U 22012F   23296.79232477  .00000061  00000+0  12494-3 0  9990
2 51627  87.9257 198.1075 0001859  74.3575 285.7761 13.17650187 86308
ONEWEB-0425             
1 51628U 22012G   23297.19239467 -.00005471  00000+0 -15712-1 0  9998
2 51628  87.8905 228.2821 0002238  79.4301 280.7078 13.10402385 83971
ONEWEB-0428             
1 51629U 22012H   23296.86746338  .00000273  00000+0  74606-3 0  9994
2 51629  87.8912 228.3583 0001876  64.2074 295.9247 13.10377839 83883
